IRIDIUM 7               
1 24793U 97020B   25273.05082055  .00000584  00000+0  19432-3 0  9995
2 24793  86.3958 133.0080 0002330  92.7853 267.3610 14.36013588486948
IRIDIUM 5               
1 24795U 97020D   25272.87741829  .00014867  00000+0  11915-2 0  9993
2 24795  86.3901  35.3960 0108440 121.7630 239.4221 14.95428960501107
IRIDIUM 4               
1 24796U 97020E   25272.96854191  .00000605  00000+0  19783-3 0  9998
2 24796  86.3948 129.8506 0002112  90.5174 269.6266 14.36914930487513
IRIDIUM 914             
1 24836U 97030A   25273.09490566  .00000682  00000+0  20639-3 0  9998
2 24836  86.3946 138.0882 0001160 134.1990 225.9305 14.40960452622232
IRIDIUM 16              
1 24841U 97030F   25273.21244278  .00000692  00000+0  21896-3 0  9992
2 24841  86.4090 161.2032 0004309  83.3131 276.8557 14.38792864482105
IRIDIUM 911             
1 24842U 97030G   25273.17858796  .00001082  00000+0  28698-3 0  9995
2 24842  86.4513 159.8746 0016228 104.6832 255.6172 14.47760738490279
IRIDIUM 17              
1 24870U 97034B   25273.19443624  .00000993  00000+0  32252-3 0  9993
2 24870  86.4029 190.6235 0003436  61.7955 298.3589 14.37923306478671
IRIDIUM 920             
1 24871U 97034C   25272.96748360  .00000779  00000+0  23317-3 0  9997
2 24871  86.4042 169.7363 0013685  94.3251 265.9513 14.41626939481672
